ISS (ZARYA)             
1 25544U 98067A   25107.13120370  .00014542  00000+0  26577-3 0  9997
2 25544  51.6383 249.4392 0005308  51.9135 312.7057 15.49616282505695
CSS (TIANHE)            
1 48274U 21035A   25106.12053226  .00038235  00000+0  43389-3 0  9991
2 48274  41.4665  38.3193 0003269 176.0159 184.0707 15.61601673226451
ISS (NAUKA)             
1 49044U 21066A   25106.89714325  .00014629  00000+0  26738-3 0  9999
2 49044  51.6389 250.5995 0005286  50.9367  87.0880 15.49609610505597
CSS (WENTIAN)           
1 53239U 22085A   25106.12053226  .00038235  00000+0  43389-3 0  9994
2 53239  41.4665  38.3193 0003269 176.0159 184.0707 15.61601673225402
CSS (MENGTIAN)          
1 54216U 22143A   25106.12053226  .00038235  00000+0  43389-3 0  9995
2 54216  41.4665  38.3193 0003269 176.0159 184.0707 15.61601673139626
SOYUZ-MS 26             
1 61043U 24162A   25106.89714325  .00014629  00000+0  26738-3 0  9992
2 61043  51.6389 250.5995 0005286  50.9367  87.0880 15.49609610504825
SHENZHOU-19 (SZ-19)     
1 61683U 24194A   25106.12053226  .00038235  00000+0  43389-3 0  9999
2 61683  41.4665  38.3193 0003269 176.0159 184.0707 15.61601673225707
TIANZHOU-8              
1 61983U 24211A   25106.12053226  .00038235  00000+0  43389-3 0  9992
2 61983  41.4665  38.3193 0003269 176.0159 184.0707 15.61601673 16292
PROGRESS-MS 29          
1 62030U 24215A   25106.89714325  .00014629  00000+0  26738-3 0  9998
2 62030  51.6389 250.5995 0005286  50.9367  87.0880 15.49609610505597
PROGRESS-MS 30          
1 63129U 25041B   25106.89714325  .00014629  00000+0  26738-3 0  9996
2 63129  51.6389 250.5995 0005286  50.9367  87.0880 15.49609610  5828
CREW DRAGON 10          
1 63204U 25049A   25106.89714325  .00014629  00000+0  26738-3 0  9998
2 63204  51.6389 250.5995 0005286  50.9367  87.0880 15.49609610505591
SOYUZ-MS 27             
1 63520U 25072A   25106.89714325  .00014629  00000+0  26738-3 0  9995
2 63520  51.6389 250.5995 0005286  50.9367  87.0880 15.49609610505592
