[{"OBJECT_NAME":"ISS (ZARYA)","OBJECT_ID":"1998-067A","EPOCH":"2025-04-17T03:08:55.999680","MEAN_MOTION":15.49616282,"ECCENTRICITY":0.0005308,"INCLINATION":51.6383,"RA_OF_ASC_NODE":249.4392,"ARG_OF_PERICENTER":51.9135,"MEAN_ANOMALY":312.7057,"EPHEMERIS_TYPE":0,"CLASSIFICATION_TYPE":"U","NORAD_CAT_ID":25544,"ELEMENT_SET_NO":999,"REV_AT_EPOCH":50569,"BSTAR":0.00026577,"MEAN_MOTION_DOT":0.00014542,"MEAN_MOTION_DDOT":0},{"OBJECT_NAME":"CSS (TIANHE)","OBJECT_ID":"2021-035A","EPOCH":"2025-04-16T02:53:33.987264","MEAN_MOTION":15.61601673,"ECCENTRICITY":0.0003269,"INCLINATION":41.4665,"RA_OF_ASC_NODE":38.3193,"ARG_OF_PERICENTER":176.0159,"MEAN_ANOMALY":184.0707,"EPHEMERIS_TYPE":0,"CLASSIFICATION_TYPE":"U","NORAD_CAT_ID":48274,"ELEMENT_SET_NO":999,"REV_AT_EPOCH":22645,"BSTAR":0.00043389,"MEAN_MOTION_DOT":0.00038235,"MEAN_MOTION_DDOT":0},{"OBJECT_NAME":"ISS (NAUKA)","OBJECT_ID":"2021-066A","EPOCH":"2025-04-16T21:31:53.176800","MEAN_MOTION":15.4960961,"ECCENTRICITY":0.0005286,"INCLINATION":51.6389,"RA_OF_ASC_NODE":250.5995,"ARG_OF_PERICENTER":50.9367,"MEAN_ANOMALY":87.088,"EPHEMERIS_TYPE":0,"CLASSIFICATION_TYPE":"U","NORAD_CAT_ID":49044,"ELEMENT_SET_NO":999,"REV_AT_EPOCH":50559,"BSTAR":0.00026738,"MEAN_MOTION_DOT":0.00014629,"MEAN_MOTION_DDOT":0},{"OBJECT_NAME":"CSS (WENTIAN)","OBJECT_ID":"2022-085A","EPOCH":"2025-04-16T02:53:33.987264","MEAN_MOTION":15.61601673,"ECCENTRICITY":0.0003269,"INCLINATION":41.4665,"RA_OF_ASC_NODE":38.3193,"ARG_OF_PERICENTER":176.0159,"MEAN_ANOMALY":184.0707,"EPHEMERIS_TYPE":0,"CLASSIFICATION_TYPE":"U","NORAD_CAT_ID":53239,"ELEMENT_SET_NO":999,"REV_AT_EPOCH":22540,"BSTAR":0.00043389,"MEAN_MOTION_DOT":0.00038235,"MEAN_MOTION_DDOT":0},{"OBJECT_NAME":"CSS (MENGTIAN)","OBJECT_ID":"2022-143A","EPOCH":"2025-04-16T02:53:33.987264","MEAN_MOTION":15.61601673,"ECCENTRICITY":0.0003269,"INCLINATION":41.4665,"RA_OF_ASC_NODE":38.3193,"ARG_OF_PERICENTER":176.0159,"MEAN_ANOMALY":184.0707,"EPHEMERIS_TYPE":0,"CLASSIFICATION_TYPE":"U","NORAD_CAT_ID":54216,"ELEMENT_SET_NO":999,"REV_AT_EPOCH":13962,"BSTAR":0.00043389,"MEAN_MOTION_DOT":0.00038235,"MEAN_MOTION_DDOT":0},{"OBJECT_NAME":"SOYUZ-MS 26","OBJECT_ID":"2024-162A","EPOCH":"2025-04-16T21:31:53.176800","MEAN_MOTION":15.4960961,"ECCENTRICITY":0.0005286,"INCLINATION":51.6389,"RA_OF_ASC_NODE":250.5995,"ARG_OF_PERICENTER":50.9367,"MEAN_ANOMALY":87.088,"EPHEMERIS_TYPE":0,"CLASSIFICATION_TYPE":"U","NORAD_CAT_ID":61043,"ELEMENT_SET_NO":999,"REV_AT_EPOCH":50482,"BSTAR":0.00026738,"MEAN_MOTION_DOT":0.00014629,"MEAN_MOTION_DDOT":0},{"OBJECT_NAME":"SHENZHOU-19 (SZ-19)","OBJECT_ID":"2024-194A","EPOCH":"2025-04-16T02:53:33.987264","MEAN_MOTION":15.61601673,"ECCENTRICITY":0.0003269,"INCLINATION":41.4665,"RA_OF_ASC_NODE":38.3193,"ARG_OF_PERICENTER":176.0159,"MEAN_ANOMALY":184.0707,"EPHEMERIS_TYPE":0,"CLASSIFICATION_TYPE":"U","NORAD_CAT_ID":61683,"ELEMENT_SET_NO":999,"REV_AT_EPOCH":22570,"BSTAR":0.00043389,"MEAN_MOTION_DOT":0.00038235,"MEAN_MOTION_DDOT":0},{"OBJECT_NAME":"TIANZHOU-8","OBJECT_ID":"2024-211A","EPOCH":"2025-04-16T02:53:33.987264","MEAN_MOTION":15.61601673,"ECCENTRICITY":0.0003269,"INCLINATION":41.4665,"RA_OF_ASC_NODE":38.3193,"ARG_OF_PERICENTER":176.0159,"MEAN_ANOMALY":184.0707,"EPHEMERIS_TYPE":0,"CLASSIFICATION_TYPE":"U","NORAD_CAT_ID":61983,"ELEMENT_SET_NO":999,"REV_AT_EPOCH":1629,"BSTAR":0.00043389,"MEAN_MOTION_DOT":0.00038235,"MEAN_MOTION_DDOT":0},{"OBJECT_NAME":"PROGRESS-MS 29","OBJECT_ID":"2024-215A","EPOCH":"2025-04-16T21:31:53.176800","MEAN_MOTION":15.4960961,"ECCENTRICITY":0.0005286,"INCLINATION":51.6389,"RA_OF_ASC_NODE":250.5995,"ARG_OF_PERICENTER":50.9367,"MEAN_ANOMALY":87.088,"EPHEMERIS_TYPE":0,"CLASSIFICATION_TYPE":"U","NORAD_CAT_ID":62030,"ELEMENT_SET_NO":999,"REV_AT_EPOCH":50559,"BSTAR":0.00026738,"MEAN_MOTION_DOT":0.00014629,"MEAN_MOTION_DDOT":0},{"OBJECT_NAME":"PROGRESS-MS 30","OBJECT_ID":"2025-041B","EPOCH":"2025-04-16T21:31:53.176800","MEAN_MOTION":15.4960961,"ECCENTRICITY":0.0005286,"INCLINATION":51.6389,"RA_OF_ASC_NODE":250.5995,"ARG_OF_PERICENTER":50.9367,"MEAN_ANOMALY":87.088,"EPHEMERIS_TYPE":0,"CLASSIFICATION_TYPE":"U","NORAD_CAT_ID":63129,"ELEMENT_SET_NO":999,"REV_AT_EPOCH":582,"BSTAR":0.00026738,"MEAN_MOTION_DOT":0.00014629,"MEAN_MOTION_DDOT":0},{"OBJECT_NAME":"CREW DRAGON 10","OBJECT_ID":"2025-049A","EPOCH":"2025-04-16T21:31:53.176800","MEAN_MOTION":15.4960961,"ECCENTRICITY":0.0005286,"INCLINATION":51.6389,"RA_OF_ASC_NODE":250.5995,"ARG_OF_PERICENTER":50.9367,"MEAN_ANOMALY":87.088,"EPHEMERIS_TYPE":0,"CLASSIFICATION_TYPE":"U","NORAD_CAT_ID":63204,"ELEMENT_SET_NO":999,"REV_AT_EPOCH":50559,"BSTAR":0.00026738,"MEAN_MOTION_DOT":0.00014629,"MEAN_MOTION_DDOT":0},{"OBJECT_NAME":"SOYUZ-MS 27","OBJECT_ID":"2025-072A","EPOCH":"2025-04-16T21:31:53.176800","MEAN_MOTION":15.4960961,"ECCENTRICITY":0.0005286,"INCLINATION":51.6389,"RA_OF_ASC_NODE":250.5995,"ARG_OF_PERICENTER":50.9367,"MEAN_ANOMALY":87.088,"EPHEMERIS_TYPE":0,"CLASSIFICATION_TYPE":"U","NORAD_CAT_ID":63520,"ELEMENT_SET_NO":999,"REV_AT_EPOCH":50559,"BSTAR":0.00026738,"MEAN_MOTION_DOT":0.00014629,"MEAN_MOTION_DDOT":0}]